IRIDIUM 150             
1 43257U 18030J   25128.83957613  .00000267  00000+0  88142-4 0  9994
2 43257  86.3931  99.5173 0002477  92.6270 267.5210 14.34221060372203
IRIDIUM 143             
1 43258U 18030K   25128.47170750  .00000220  00000+0  71403-4 0  9995
2 43258  86.3935  99.7482 0002701  93.3489 266.8016 14.34217857372084
IRIDIUM 161             
1 43478U 18047C   25128.76220937  .00000458  00000+0  13022-3 0  9997
2 43478  86.4474 257.4150 0002074  91.5421 268.6018 14.43275946366809
IRIDIUM 152             
1 43479U 18047D   25128.72349647  .00000319  00000+0  10701-3 0  9991
2 43479  86.3951 257.2916 0002041  96.4307 263.7122 14.34217305364511
IRIDIUM 147             
1 43480U 18047E   25128.72984134  .00000142  00000+0  43652-4 0  9995
2 43480  86.3952 257.2869 0002151  90.6067 269.5375 14.34217677364518
IRIDIUM 110             
1 43481U 18047F   25128.87571939  .00000130  00000+0  39324-4 0  9995
2 43481  86.3952 257.3072 0001699  89.6104 270.5287 14.34217145364527
IRIDIUM 162             
1 43482U 18047G   25128.75590826  .00000520  00000+0  14867-3 0  9996
2 43482  86.4475 257.3133 0001926  97.5331 262.6088 14.43282875366794
IRIDIUM 160             
1 43569U 18061A   25128.68201984  .00000030  00000+0  35255-5 0  9996
2 43569  86.4006 225.7708 0002048  92.1903 267.9527 14.34217691355393
